IRIDIUM 166             
1 43570U 18061B   24307.44870780  .00000539  00000+0  18529-3 0  9993
2 43570  86.3922 304.0265 0002418  84.5812 275.5660 14.34220861328582
IRIDIUM 158             
1 43571U 18061C   24307.41697134  .00000016  00000+0 -13968-5 0  9996
2 43571  86.3921 304.0495 0002221  89.5035 270.6416 14.34216667328541
IRIDIUM 165             
1 43572U 18061D   24307.51211188  .00000091  00000+0  25365-4 0  9994
2 43572  86.3921 304.0444 0002167  88.4774 271.6670 14.34217814328585
IRIDIUM 155             
1 43573U 18061E   24307.54382437  .00000235  00000+0  76749-4 0  9996
2 43573  86.3914 303.9292 0002381  87.7698 272.3770 14.34217737328552
IRIDIUM 154             
1 43574U 18061F   24307.52479334  .00000299  00000+0  99582-4 0  9998
2 43574  86.3923 304.0416 0002076  91.4346 268.7087 14.34218791328603
IRIDIUM 163             
1 43575U 18061G   24307.50576625  .00000259  00000+0  85351-4 0  9993
2 43575  86.3921 303.9837 0002306  94.3117 265.8342 14.34219286328579
IRIDIUM 156             
1 43576U 18061H   24307.48039900 -.00000013  00000+0 -11638-4 0  9998
2 43576  86.3919 304.0011 0002393  85.5513 274.5956 14.34217525328562
IRIDIUM 164             
1 43577U 18061J   24307.53113919  .00000005  00000+0 -53459-5 0  9996
2 43577  86.3923 304.0107 0002051  84.8742 275.2688 14.34217659328615
